{
  "type": "FeatureCollection",
  "features": [
    {
      "type": "Feature",
      "properties": {
        "norad_id": 31072,
        "name": "FENGYUN 1C DEB",
        "group": "fengyun-1c-debris",
        "lat": -51.34558418277386,
        "lon": 18.78867299813455,
        "alt_km": 863.4820220036972,
        "timestamp": "2025-12-26T15:29:39.719767+00:00",
        "meta_object_name": "FENGYUN 1C DEB",
        "meta_object_id": "1999-025BFS",
        "meta_epoch": "2025-12-25T22:53:35.674368",
        "meta_mean_motion": 14.25530356,
        "meta_eccentricity": 0.0210218,
        "meta_inclination": 99.3336,
        "meta_ra_of_asc_node": 6.1866,
        "meta_arg_of_pericenter": 60.1537,
        "meta_mean_anomaly": 302.0353,
        "meta_ephemeris_type": 0,
        "meta_classification_type": "U",
        "meta_norad_cat_id": 31072,
        "meta_element_set_no": 999,
        "meta_rev_at_epoch": 96831,
        "meta_bstar": 0.00069077,
        "meta_mean_motion_dot": 2.007e-05,
        "meta_mean_motion_ddot": 0,
        "tle_line1": "1 31072U 99025BFS 25359.95388512  .00002007  00000+0  69077-3 0  9993",
        "tle_line2": "2 31072  99.3336   6.1866 0210218  60.1537 302.0353 14.25530356968318"
      },
      "geometry": {
        "type": "Point",
        "coordinates": [
          18.78867299813455,
          -51.34558418277386
        ]
      }
    },
    {
      "type": "Feature",
      "properties": {
        "norad_id": 31073,
        "name": "FENGYUN 1C DEB",
        "group": "fengyun-1c-debris",
        "lat": -80.74397987748623,
        "lon": -63.71581476942761,
        "alt_km": 786.993146033009,
        "timestamp": "2025-12-26T15:29:39.719777+00:00",
        "meta_object_name": "FENGYUN 1C DEB",
        "meta_object_id": "1999-025BFT",
        "meta_epoch": "2025-12-25T12:56:47.074272",
        "meta_mean_motion": 14.24858681,
        "meta_eccentricity": 0.0044795,
        "meta_inclination": 99.219,
        "meta_ra_of_asc_node": 209.8717,
        "meta_arg_of_pericenter": 249.1711,
        "meta_mean_anomaly": 110.4666,
        "meta_ephemeris_type": 0,
        "meta_classification_type": "U",
        "meta_norad_cat_id": 31073,
        "meta_element_set_no": 999,
        "meta_rev_at_epoch": 97265,
        "meta_bstar": 0.0011531,
        "meta_mean_motion_dot": 2.672e-05,
        "meta_mean_motion_ddot": 0,
        "tle_line1": "1 31073U 99025BFT 25359.53943373  .00002672  00000+0  11531-2 0  9999",
        "tle_line2": "2 31073  99.2190 209.8717 0044795 249.1711 110.4666 14.24858681972654"
      },
      "geometry": {
        "type": "Point",
        "coordinates": [
          -63.71581476942761,
          -80.74397987748623
        ]
      }
    },
    {
      "type": "Feature",
      "properties": {
        "norad_id": 31074,
        "name": "FENGYUN 1C DEB",
        "group": "fengyun-1c-debris",
        "lat": 32.91504783085584,
        "lon": -90.1748456147305,
        "alt_km": 903.2895815242946,
        "timestamp": "2025-12-26T15:29:39.719787+00:00",
        "meta_object_name": "FENGYUN 1C DEB",
        "meta_object_id": "1999-025BFU",
        "meta_epoch": "2025-12-25T17:15:45.123264",
        "meta_mean_motion": 14.14335151,
        "meta_eccentricity": 0.00863428,
        "meta_inclination": 98.9581,
        "meta_ra_of_asc_node": 274.7566,
        "meta_arg_of_pericenter": 228.8488,
        "meta_mean_anomaly": 130.5212,
        "meta_ephemeris_type": 0,
        "meta_classification_type": "U",
        "meta_norad_cat_id": 31074,
        "meta_element_set_no": 999,
        "meta_rev_at_epoch": 95763,
        "meta_bstar": 0.0019375596,
        "meta_mean_motion_dot": 3.795e-05,
        "meta_mean_motion_ddot": 0,
        "tle_line1": "1 31074U 99025BFU 25359.71927226  .00003795  00000+0  19376-2 0  9991",
        "tle_line2": "2 31074  98.9581 274.7566 0086342 228.8488 130.5212 14.14335151957639"
      },
      "geometry": {
        "type": "Point",
        "coordinates": [
          -90.1748456147305,
          32.91504783085584
        ]
      }
    },
    {
      "type": "Feature",
      "properties": {
        "norad_id": 31078,
        "name": "FENGYUN 1C DEB",
        "group": "fengyun-1c-debris",
        "lat": 32.987193952028825,
        "lon": 55.34547009957207,
        "alt_km": 794.2088925983498,
        "timestamp": "2025-12-26T15:29:39.719797+00:00",
        "meta_object_name": "FENGYUN 1C DEB",
        "meta_object_id": "1999-025BFY",
        "meta_epoch": "2025-12-25T10:41:17.935008",
        "meta_mean_motion": 14.22107607,
        "meta_eccentricity": 0.0117309,
        "meta_inclination": 98.8648,
        "meta_ra_of_asc_node": 59.9531,
        "meta_arg_of_pericenter": 112.5662,
        "meta_mean_anomaly": 260.9164,
        "meta_ephemeris_type": 0,
        "meta_classification_type": "U",
        "meta_norad_cat_id": 31078,
        "meta_element_set_no": 999,
        "meta_rev_at_epoch": 97073,
        "meta_bstar": 0.00051406,
        "meta_mean_motion_dot": 1.177e-05,
        "meta_mean_motion_ddot": 0,
        "tle_line1": "1 31078U 99025BFY 25359.44534647  .00001177  00000+0  51406-3 0  9999",
        "tle_line2": "2 31078  98.8648  59.9531 0117309 112.5662 260.9164 14.22107607970734"
      },
      "geometry": {
        "type": "Point",
        "coordinates": [
          55.34547009957207,
          32.987193952028825
        ]
      }
    },
    {
      "type": "Feature",
      "properties": {
        "norad_id": 31081,
        "name": "FENGYUN 1C DEB",
        "group": "fengyun-1c-debris",
        "lat": 77.27884530777774,
        "lon": -120.21386818724031,
        "alt_km": 866.0176975918839,
        "timestamp": "2025-12-26T15:29:39.719807+00:00",
        "meta_object_name": "FENGYUN 1C DEB",
        "meta_object_id": "1999-025BGB",
        "meta_epoch": "2025-12-23T07:05:52.274688",
        "meta_mean_motion": 14.06299048,
        "meta_eccentricity": 0.00478119,
        "meta_inclination": 98.7696,
        "meta_ra_of_asc_node": 13.4015,
        "meta_arg_of_pericenter": 200.9733,
        "meta_mean_anomaly": 228.9859,
        "meta_ephemeris_type": 0,
        "meta_classification_type": "U",
        "meta_norad_cat_id": 31081,
        "meta_element_set_no": 999,
        "meta_rev_at_epoch": 96609,
        "meta_bstar": 5.9046128e-05,
        "meta_mean_motion_dot": 5.6e-07,
        "meta_mean_motion_ddot": 0,
        "tle_line1": "1 31081U 99025BGB 25357.29574392  .00000056  00000+0  59046-4 0  9999",
        "tle_line2": "2 31081  98.7696  13.4015 0047811 200.9733 228.9859 14.06299048966095"
      },
      "geometry": {
        "type": "Point",
        "coordinates": [
          -120.21386818724031,
          77.27884530777774
        ]
      }
    },
    {
      "type": "Feature",
      "properties": {
        "norad_id": 31083,
        "name": "FENGYUN 1C DEB",
        "group": "fengyun-1c-debris",
        "lat": 63.36444409010967,
        "lon": 101.07523899938538,
        "alt_km": 701.0020259602243,
        "timestamp": "2025-12-26T15:29:39.719817+00:00",
        "meta_object_name": "FENGYUN 1C DEB",
        "meta_object_id": "1999-025BGD",
        "meta_epoch": "2025-12-26T07:07:20.421696",
        "meta_mean_motion": 14.62377083,
        "meta_eccentricity": 0.00323186,
        "meta_inclination": 98.6459,
        "meta_ra_of_asc_node": 118.3709,
        "meta_arg_of_pericenter": 263.6875,
        "meta_mean_anomaly": 125.5688,
        "meta_ephemeris_type": 0,
        "meta_classification_type": "U",
        "meta_norad_cat_id": 31083,
        "meta_element_set_no": 999,
        "meta_rev_at_epoch": 97908,
        "meta_bstar": 0.0028305497,
        "meta_mean_motion_dot": 0.00014391,
        "meta_mean_motion_ddot": 0,
        "tle_line1": "1 31083U 99025BGD 25360.29676414  .00014391  00000+0  28305-2 0  9992",
        "tle_line2": "2 31083  98.6459 118.3709 0032318 263.6875 125.5688 14.62377083979080"
      },
      "geometry": {
        "type": "Point",
        "coordinates": [
          101.07523899938538,
          63.36444409010967
        ]
      }
    },
    {
      "type": "Feature",
      "properties": {
        "norad_id": 31085,
        "name": "FENGYUN 1C DEB",
        "group": "fengyun-1c-debris",
        "lat": 34.72574161965005,
        "lon": -164.41003350302282,
        "alt_km": 754.5812884878642,
        "timestamp": "2025-12-26T15:29:39.719827+00:00",
        "meta_object_name": "FENGYUN 1C DEB",
        "meta_object_id": "1999-025BGF",
        "meta_epoch": "2025-12-23T07:34:38.019648",
        "meta_mean_motion": 14.30315184,
        "meta_eccentricity": 0.00868652,
        "meta_inclination": 98.9838,
        "meta_ra_of_asc_node": 198.4478,
        "meta_arg_of_pericenter": 347.3794,
        "meta_mean_anomaly": 190.7566,
        "meta_ephemeris_type": 0,
        "meta_classification_type": "U",
        "meta_norad_cat_id": 31085,
        "meta_element_set_no": 999,
        "meta_rev_at_epoch": 97867,
        "meta_bstar": 9.7983281e-05,
        "meta_mean_motion_dot": 2.17e-06,
        "meta_mean_motion_ddot": 0,
        "tle_line1": "1 31085U 99025BGF 25357.31571782  .00000217  00000+0  97983-4 0  9997",
        "tle_line2": "2 31085  98.9838 198.4478 0086865 347.3794 190.7566 14.30315184978676"
      },
      "geometry": {
        "type": "Point",
        "coordinates": [
          -164.41003350302282,
          34.72574161965005
        ]
      }
    }
  ]
}